APRIZESAT 2             
1 28366U 04025A   26190.27208912  .00000160  00000+0  62531-4 0  9992
2 28366  98.1034 355.0043 0105526 182.7174 177.3454 14.38045813154818
SAUDICOMSAT 1           
1 28369U 04025D   26191.32103225  .00000203  00000+0  57811-4 0  9996
2 28369  98.5775 202.0771 0031194 314.3212  45.5427 14.55491457167493
SAUDICOMSAT 2           
1 28370U 04025E   26190.48320718  .00000129  00000+0  45197-4 0  9993
2 28370  98.6641 203.3598 0055235 191.0053 168.9936 14.49992555163336
APRIZESAT 1             
1 28372U 04025G   26190.48728691  .00000171  00000+0  54113-4 0  9992
2 28372  98.6307 201.8197 0045817  87.5682 273.0757 14.51789909165147
NANOSAT-1               
1 28493U 04049B   26190.61233037  .00000669  00000+0  95293-4 0  9998
2 28493  98.2302 327.8253 0003359 203.2286 156.8773 14.80204087158763
SAUDICOMSAT 7           
1 31119U 07012C   26190.49815470  .00000353  00000+0  72306-4 0  9993
2 31119  98.3793 165.0881 0056758 125.7614 234.8886 14.66132899 25704
SAUDICOMSAT 6           
1 31121U 07012E   26191.14546664  .00000254  00000+0  58592-4 0  9996
2 31121  98.4113 159.0913 0070388 255.1142 104.2256 14.62582004 23546
SAUDICOMSAT 5           
1 31124U 07012H   26190.37219998  .00000491  00000+0  92938-4 0  9995
2 31124  98.3504 165.7019 0048534  56.7817 303.8026 14.68187365 26851
SAUDICOMSAT 3           
1 31125U 07012J   26191.17863623  .00000523  00000+0  93600-4 0  9998
2 31125  98.3159 167.0716 0038613 341.3426  18.6362 14.70745047 28208
SAUDICOMSAT 4           
1 31127U 07012L   26190.76938937  .00000267  00000+0  58823-4 0  9998
2 31127  98.3999 163.8022 0063168 186.6883 173.3482 14.64532489 24593
APRIZESAT 4             
1 35684U 09041D   26191.04876308  .00000436  00000+0  58815-4 0  9998
2 35684  98.1404 266.8244 0041995 246.6745 113.0046 14.83909503914751
APRIZESAT 3             
1 35686U 09041F   26191.23713804  .00001084  00000+0  98317-4 0  9993
2 35686  98.2087 345.5692 0061138 352.2425   7.7843 14.96300654919826
S-NET D                 
1 43186U 18014G   26191.15589051  .00003696  00000+0  19103-3 0  9999
2 43186  97.5340  95.8038 0006470 306.7776  53.2863 15.16889680462245
S-NET B                 
1 43187U 18014H   26191.16779327  .00003324  00000+0  17231-3 0  9996
2 43187  97.5347  95.8030 0007061 300.7483  59.3054 15.16859347462247
S-NET A                 
1 43188U 18014J   26191.15464110  .00003701  00000+0  19124-3 0  9999
2 43188  97.5356  96.0032 0006956 301.5020  58.5533 15.16898015462249
S-NET C                 
1 43189U 18014K   26191.17179009  .00003189  00000+0  16547-3 0  9998
2 43189  97.5373  96.0982 0008190 291.4875  68.5484 15.16850707460790
SALSAT                  
1 46495U 20068K   26190.25177099  .00005482  00000+0  19084-3 0  9995
2 46495  97.8858 194.6644 0008593 215.0810 144.9864 15.30117525318739
OOV-CUBE (TUBSAT-30)    
1 60240U 24128F   26190.61158508  .00001327  00000+0  11249-3 0  9993
2 60240  61.9941 147.3745 0041807 138.6970 221.7297 15.02859618109486
LPNTSAT-001 (IOD-1)     
1 68408U 26065A   26190.48017286  .00001847  00000+0  92207-4 0  9992
2 68408  97.3994  70.5166 0014683 288.6922  71.2718 15.18651285 15647
